FENGYUN 1C DEB          
1 33643U 99025DEC 17345.06810160  .00000504  00000-0  68692-4 0  9990
2 33643  99.0850  85.5821 0158197  26.0335 334.8720 14.76120552537321
